ONEWEB-0379             
1 49305U 21090AC  26004.38462354 -.00000033  00000+0 -12335-3 0  9994
2 49305  87.9014 322.3447 0001865  78.8043 281.3296 13.14504071206046
ONEWEB-0380             
1 49306U 21090AD  26004.42086225  .00000029  00000+0  40625-4 0  9996
2 49306  87.9214 337.5611 0001821  89.4526 270.6815 13.19725410204825
ONEWEB-0381             
1 49307U 21090AE  26004.37214628 -.00000021  00000+0 -84771-4 0  9995
2 49307  87.9225 307.1133 0001900  82.7811 277.3538 13.20772349208208
ONEWEB-0382             
1 49308U 21090AF  26004.35950797  .00000043  00000+0  72683-4 0  9999
2 49308  87.9225 307.1122 0002071  79.5412 280.5955 13.20771361208198
ONEWEB-0383             
1 49309U 21090AG  26004.37827779 -.00000068  00000+0 -21750-3 0  9992
2 49309  87.9016 322.3311 0001938  78.0917 282.0430 13.14502578206076
ONEWEB-0384             
1 49310U 21090AH  26004.35244031 -.00000047  00000+0 -14792-3 0  9991
2 49310  87.9237 307.1515 0002272  77.7712 282.3676 13.20801586208201
ONEWEB-0385             
1 49311U 21090AJ  26004.35162907 -.00000028  00000+0 -10084-3 0  9992
2 49311  87.9224 307.1180 0001885  79.1911 280.9435 13.20773027208173
ONEWEB-0386             
1 49312U 21090AK  26004.36899038  .00000058  00000+0  11134-3 0  9994
2 49312  87.9224 307.0992 0002014  77.9612 282.1747 13.20773089208193
